[{"OBJECT_NAME":"PUNCH-WFI 2 (SMEX 15C)","OBJECT_ID":"2025-047D","EPOCH":"2026-03-09T22:37:47.775648","MEAN_MOTION":14.74227311,"ECCENTRICITY":0.00102861,"INCLINATION":97.9559,"RA_OF_ASC_NODE":255.8558,"ARG_OF_PERICENTER":135.6777,"MEAN_ANOMALY":224.5257,"EPHEMERIS_TYPE":0,"CLASSIFICATION_TYPE":"U","NORAD_CAT_ID":63181,"ELEMENT_SET_NO":999,"REV_AT_EPOCH":5343,"BSTAR":0.00015546473,"MEAN_MOTION_DOT":9.78e-6,"MEAN_MOTION_DDOT":0},{"OBJECT_NAME":"SL-14 R\/B","OBJECT_ID":"1994-066B","EPOCH":"2026-03-09T12:27:40.446432","MEAN_MOTION":14.80893946,"ECCENTRICITY":0.00215923,"INCLINATION":82.537,"RA_OF_ASC_NODE":90.4426,"ARG_OF_PERICENTER":230.6379,"MEAN_ANOMALY":129.2922,"EPHEMERIS_TYPE":0,"CLASSIFICATION_TYPE":"U","NORAD_CAT_ID":23318,"ELEMENT_SET_NO":999,"REV_AT_EPOCH":69359,"BSTAR":5.612059e-5,"MEAN_MOTION_DOT":4.58e-6,"MEAN_MOTION_DDOT":0}]
